sat12586
1 12586U 81065B   20046.82374855  .00000327  00000-0  23614-4 0  9998
2 12586  97.6088  30.0994 0020369  98.0203 262.3339 15.10664412 99308
